{
  "norad_id": 65291,
  "name": "STARLINK-35002",
  "history": [
    {
      "epoch": "2026-03-28T21:06:26.294400Z",
      "apogee_km": 550.5296365725198,
      "perigee_km": 548.459660235977,
      "latitude_deg": 5.6242568652902115e-06,
      "longitude_deg": -1.39904283819116,
      "height_km": 553.4315331670923,
      "semi_major_axis_km": 6927.631648404248,
      "eccentricity": 0.0001494,
      "inclination_deg": 97.6041,
      "raan_deg": 141.5041,
      "arg_perigee_deg": 147.4901,
      "mean_anomaly_deg": 212.6418,
      "mean_motion_rev_day": 15.05655381
    },
    {
      "epoch": "2026-03-29T03:29:14.223264Z",
      "apogee_km": 550.5722299282661,
      "perigee_km": 548.4038832855485,
      "latitude_deg": 5.355028060887537e-05,
      "longitude_deg": -97.09866925259311,
      "height_km": 553.4539482593051,
      "semi_major_axis_km": 6927.6250566069075,
      "eccentricity": 0.0001565,
      "inclination_deg": 97.6041,
      "raan_deg": 141.7662,
      "arg_perigee_deg": 146.2934,
      "mean_anomaly_deg": 213.8393,
      "mean_motion_rev_day": 15.0565753
    }
  ]
}